[{"OBJECT_NAME":"GPS BIIR-2  (PRN 13)","OBJECT_ID":"1997-035A","EPOCH":"2026-03-31T22:07:18.613344","MEAN_MOTION":2.00563974,"ECCENTRICITY":0.009886,"INCLINATION":55.952,"RA_OF_ASC_NODE":101.5943,"ARG_OF_PERICENTER":56.1233,"MEAN_ANOMALY":304.8576,"EPHEMERIS_TYPE":0,"CLASSIFICATION_TYPE":"U","NORAD_CAT_ID":24876,"ELEMENT_SET_NO":999,"REV_AT_EPOCH":21040,"BSTAR":0,"MEAN_MOTION_DOT":4.2e-7,"MEAN_MOTION_DDOT":0},{"OBJECT_NAME":"GPS BIIR-5  (PRN 22)","OBJECT_ID":"2000-040A","EPOCH":"2026-03-31T18:03:41.941728","MEAN_MOTION":2.00569238,"ECCENTRICITY":0.01221722,"INCLINATION":54.8689,"RA_OF_ASC_NODE":218.2361,"ARG_OF_PERICENTER":302.5173,"MEAN_ANOMALY":230.0733,"EPHEMERIS_TYPE":0,"CLASSIFICATION_TYPE":"U","NORAD_CAT_ID":26407,"ELEMENT_SET_NO":999,"REV_AT_EPOCH":18839,"BSTAR":0,"MEAN_MOTION_DOT":-3.6e-7,"MEAN_MOTION_DDOT":0},{"OBJECT_NAME":"GPS BIIR-8  (PRN 16)","OBJECT_ID":"2003-005A","EPOCH":"2026-03-31T08:19:35.819904","MEAN_MOTION":2.00564767,"ECCENTRICITY":0.014851,"INCLINATION":54.9001,"RA_OF_ASC_NODE":218.0599,"ARG_OF_PERICENTER":52.8714,"MEAN_ANOMALY":322.3869,"EPHEMERIS_TYPE":0,"CLASSIFICATION_TYPE":"U","NORAD_CAT_ID":27663,"ELEMENT_SET_NO":999,"REV_AT_EPOCH":16975,"BSTAR":0,"MEAN_MOTION_DOT":-3.9e-7,"MEAN_MOTION_DDOT":0},{"OBJECT_NAME":"GPS BIIR-11 (PRN 19)","OBJECT_ID":"2004-009A","EPOCH":"2026-03-31T14:45:46.977120","MEAN_MOTION":2.00557212,"ECCENTRICITY":0.01123176,"INCLINATION":54.8949,"RA_OF_ASC_NODE":278.8194,"ARG_OF_PERICENTER":169.8815,"MEAN_ANOMALY":194.1241,"EPHEMERIS_TYPE":0,"CLASSIFICATION_TYPE":"U","NORAD_CAT_ID":28190,"ELEMENT_SET_NO":999,"REV_AT_EPOCH":16139,"BSTAR":0,"MEAN_MOTION_DOT":-3.3e-7,"MEAN_MOTION_DDOT":0},{"OBJECT_NAME":"GPS BIIR-13 (PRN 02)","OBJECT_ID":"2004-045A","EPOCH":"2026-03-31T07:44:51.692928","MEAN_MOTION":2.00574746,"ECCENTRICITY":0.0170415,"INCLINATION":55.1797,"RA_OF_ASC_NODE":328.0336,"ARG_OF_PERICENTER":313.8624,"MEAN_ANOMALY":264.009,"EPHEMERIS_TYPE":0,"CLASSIFICATION_TYPE":"U","NORAD_CAT_ID":28474,"ELEMENT_SET_NO":999,"REV_AT_EPOCH":15686,"BSTAR":0,"MEAN_MOTION_DOT":-8.0e-7,"MEAN_MOTION_DDOT":0},{"OBJECT_NAME":"GPS BIIRM-1 (PRN 17)","OBJECT_ID":"2005-038A","EPOCH":"2026-03-31T13:42:16.211808","MEAN_MOTION":2.00571105,"ECCENTRICITY":0.01281384,"INCLINATION":54.9421,"RA_OF_ASC_NODE":276.3079,"ARG_OF_PERICENTER":295.6648,"MEAN_ANOMALY":61.6866,"EPHEMERIS_TYPE":0,"CLASSIFICATION_TYPE":"U","NORAD_CAT_ID":28874,"ELEMENT_SET_NO":999,"REV_AT_EPOCH":15027,"BSTAR":0,"MEAN_MOTION_DOT":-3.2e-7,"MEAN_MOTION_DDOT":0},{"OBJECT_NAME":"GPS BIIRM-2 (PRN 31)","OBJECT_ID":"2006-042A","EPOCH":"2026-04-01T07:00:09.034272","MEAN_MOTION":2.00574052,"ECCENTRICITY":0.0106313,"INCLINATION":54.6994,"RA_OF_ASC_NODE":154.3926,"ARG_OF_PERICENTER":53.1639,"MEAN_ANOMALY":1.9519,"EPHEMERIS_TYPE":0,"CLASSIFICATION_TYPE":"U","NORAD_CAT_ID":29486,"ELEMENT_SET_NO":999,"REV_AT_EPOCH":14285,"BSTAR":0,"MEAN_MOTION_DOT":3.6e-7,"MEAN_MOTION_DDOT":0},{"OBJECT_NAME":"GPS BIIRM-3 (PRN 12)","OBJECT_ID":"2006-052A","EPOCH":"2026-03-31T15:17:25.982592","MEAN_MOTION":2.00553493,"ECCENTRICITY":0.00872015,"INCLINATION":54.9503,"RA_OF_ASC_NODE":217.0788,"ARG_OF_PERICENTER":89.8595,"MEAN_ANOMALY":271.1,"EPHEMERIS_TYPE":0,"CLASSIFICATION_TYPE":"U","NORAD_CAT_ID":29601,"ELEMENT_SET_NO":999,"REV_AT_EPOCH":14185,"BSTAR":0,"MEAN_MOTION_DOT":-3.7e-7,"MEAN_MOTION_DDOT":0},{"OBJECT_NAME":"GPS BIIRM-4 (PRN 15)","OBJECT_ID":"2007-047A","EPOCH":"2026-03-31T22:37:38.760672","MEAN_MOTION":2.00559259,"ECCENTRICITY":0.0164039,"INCLINATION":54.0383,"RA_OF_ASC_NODE":83.2475,"ARG_OF_PERICENTER":86.1941,"MEAN_ANOMALY":275.6919,"EPHEMERIS_TYPE":0,"CLASSIFICATION_TYPE":"U","NORAD_CAT_ID":32260,"ELEMENT_SET_NO":999,"REV_AT_EPOCH":13526,"BSTAR":0,"MEAN_MOTION_DOT":5.0e-8,"MEAN_MOTION_DDOT":0},{"OBJECT_NAME":"GPS BIIRM-5 (PRN 29)","OBJECT_ID":"2007-062A","EPOCH":"2026-03-31T00:13:28.799040","MEAN_MOTION":2.00555203,"ECCENTRICITY":0.00337799,"INCLINATION":55.0946,"RA_OF_ASC_NODE":277.2932,"ARG_OF_PERICENTER":161.1884,"MEAN_ANOMALY":12.232,"EPHEMERIS_TYPE":0,"CLASSIFICATION_TYPE":"U","NORAD_CAT_ID":32384,"ELEMENT_SET_NO":999,"REV_AT_EPOCH":13394,"BSTAR":0,"MEAN_MOTION_DOT":-2.8e-7,"MEAN_MOTION_DDOT":0},{"OBJECT_NAME":"GPS BIIRM-6 (PRN 07)","OBJECT_ID":"2008-012A","EPOCH":"2026-04-01T08:36:04.518432","MEAN_MOTION":2.00570203,"ECCENTRICITY":0.0208545,"INCLINATION":54.4845,"RA_OF_ASC_NODE":152.9949,"ARG_OF_PERICENTER":246.6827,"MEAN_ANOMALY":111.1856,"EPHEMERIS_TYPE":0,"CLASSIFICATION_TYPE":"U","NORAD_CAT_ID":32711,"ELEMENT_SET_NO":999,"REV_AT_EPOCH":13221,"BSTAR":0,"MEAN_MOTION_DOT":3.7e-7,"MEAN_MOTION_DDOT":0},{"OBJECT_NAME":"GPS BIIRM-8 (PRN 05)","OBJECT_ID":"2009-043A","EPOCH":"2026-04-01T08:10:35.959872","MEAN_MOTION":2.00558679,"ECCENTRICITY":0.0052373,"INCLINATION":56.1654,"RA_OF_ASC_NODE":30.4705,"ARG_OF_PERICENTER":80.864,"MEAN_ANOMALY":281.0475,"EPHEMERIS_TYPE":0,"CLASSIFICATION_TYPE":"U","NORAD_CAT_ID":35752,"ELEMENT_SET_NO":999,"REV_AT_EPOCH":12182,"BSTAR":0,"MEAN_MOTION_DOT":-1.0e-6,"MEAN_MOTION_DDOT":0},{"OBJECT_NAME":"GPS BIIF-1  (PRN 25)","OBJECT_ID":"2010-022A","EPOCH":"2026-04-01T04:10:36.475392","MEAN_MOTION":2.00558637,"ECCENTRICITY":0.0127025,"INCLINATION":54.2829,"RA_OF_ASC_NODE":211.6633,"ARG_OF_PERICENTER":66.0199,"MEAN_ANOMALY":292.4104,"EPHEMERIS_TYPE":0,"CLASSIFICATION_TYPE":"U","NORAD_CAT_ID":36585,"ELEMENT_SET_NO":999,"REV_AT_EPOCH":11604,"BSTAR":0,"MEAN_MOTION_DOT":-3.0e-7,"MEAN_MOTION_DDOT":0},{"OBJECT_NAME":"GPS BIIF-3  (PRN 24)","OBJECT_ID":"2012-053A","EPOCH":"2026-03-27T01:15:46.012032","MEAN_MOTION":2.00566077,"ECCENTRICITY":0.0177237,"INCLINATION":53.5685,"RA_OF_ASC_NODE":146.9649,"ARG_OF_PERICENTER":64.9128,"MEAN_ANOMALY":296.9786,"EPHEMERIS_TYPE":0,"CLASSIFICATION_TYPE":"U","NORAD_CAT_ID":38833,"ELEMENT_SET_NO":999,"REV_AT_EPOCH":9779,"BSTAR":0,"MEAN_MOTION_DOT":-4.0e-8,"MEAN_MOTION_DDOT":0},{"OBJECT_NAME":"GPS BIIF-4  (PRN 27)","OBJECT_ID":"2013-023A","EPOCH":"2026-03-31T21:41:02.271264","MEAN_MOTION":2.00563989,"ECCENTRICITY":0.0141962,"INCLINATION":54.5658,"RA_OF_ASC_NODE":272.1198,"ARG_OF_PERICENTER":50.3418,"MEAN_ANOMALY":310.8851,"EPHEMERIS_TYPE":0,"CLASSIFICATION_TYPE":"U","NORAD_CAT_ID":39166,"ELEMENT_SET_NO":999,"REV_AT_EPOCH":9433,"BSTAR":0,"MEAN_MOTION_DOT":-3.4e-7,"MEAN_MOTION_DDOT":0},{"OBJECT_NAME":"GPS BIIF-5  (PRN 30)","OBJECT_ID":"2014-008A","EPOCH":"2026-04-01T09:38:46.169664","MEAN_MOTION":2.00554869,"ECCENTRICITY":0.0083202,"INCLINATION":53.6402,"RA_OF_ASC_NODE":152.4525,"ARG_OF_PERICENTER":229.3061,"MEAN_ANOMALY":130.0456,"EPHEMERIS_TYPE":0,"CLASSIFICATION_TYPE":"U","NORAD_CAT_ID":39533,"ELEMENT_SET_NO":999,"REV_AT_EPOCH":8814,"BSTAR":0,"MEAN_MOTION_DOT":3.6e-7,"MEAN_MOTION_DDOT":0},{"OBJECT_NAME":"GPS BIIF-6  (PRN 06)","OBJECT_ID":"2014-026A","EPOCH":"2026-04-01T04:19:11.572320","MEAN_MOTION":2.00566702,"ECCENTRICITY":0.0039432,"INCLINATION":56.5333,"RA_OF_ASC_NODE":334.5171,"ARG_OF_PERICENTER":325.9389,"MEAN_ANOMALY":33.8581,"EPHEMERIS_TYPE":0,"CLASSIFICATION_TYPE":"U","NORAD_CAT_ID":39741,"ELEMENT_SET_NO":999,"REV_AT_EPOCH":8699,"BSTAR":0,"MEAN_MOTION_DOT":-8.8e-7,"MEAN_MOTION_DDOT":0}]
